H1 CPF 01  gfz 2022 01 25 01  5251 terrasarx 
H2 0702601  6201 31698    2022 01 25 00 59 42 2022 01 30 00 00 42   120 1 1  0 0 0
H9
10 0 59607  75582.000000  0   -1638156.882    389614.848   6668784.930
10 0 59607  75702.000000  0   -2231773.428   1048329.207   6421473.541
10 0 59607  75822.000000  0   -2774985.229   1698695.394   6061292.059
10 0 59607  75942.000000  0   -3258549.608   2328389.855   5594535.166
10 0 59607  76062.000000  0   -3674469.883   2925289.608   5029371.665
10 0 59607  76182.000000  0   -4016132.225   3477707.819   4375707.163
10 0 59607  76302.000000  0   -4278415.981   3974625.837   3645015.537
10 0 59607  76422.000000  0   -4457775.389   4405917.662   2850140.582
10 0 59607  76542.000000  0   -4552289.277   4762561.330   2005069.738
10 0 59607  76662.000000  0   -4561677.304   5036831.444   1124684.452
10 0 59607  76782.000000  0   -4487283.603   5222467.179    224492.488
10 0 59607  76902.000000  0   -4332028.171   5314813.349   -679652.396
10 0 59607  77022.000000  0   -4100325.357   5310930.771  -1571840.253
10 0 59607  77142.000000  0   -3797969.992   5209668.109  -2436394.676
10 0 59607  77262.000000  0   -3431997.862   5011699.815  -3258154.669
10 0 59607  77382.000000  0   -3010522.605   4719525.163  -4022745.137
10 0 59607  77502.000000  0   -2542554.505   4337430.782  -4716827.439
10 0 59607  77622.000000  0   -2037806.228   3871419.675  -5328326.606
10 0 59607  77742.000000  0   -1506491.003   3329109.881  -5846633.638
10 0 59607  77862.000000  0    -959116.095   2719602.574  -6262780.915
10 0 59607  77982.000000  0    -406276.045   2053323.112  -6569586.174
10 0 59607  78102.000000  0     141549.230   1341840.423  -6761764.617
10 0 59607  78222.000000  0     674188.030    597666.957  -6836010.791
10 0 59607  78342.000000  0    1181961.617   -165957.568  -6791050.099
10 0 59607  78462.000000  0    1655856.102   -935297.466  -6627657.315
10 0 59607  78582.000000  0    2087678.063  -1696361.683  -6348643.673
10 0 59607  78702.000000  0    2470194.012  -2435151.586  -5958814.042
10 0 59607  78822.000000  0    2797251.078  -3137913.298  -5464894.226
10 0 59607  78942.000000  0    3063878.458  -3791393.819  -4875426.612
10 0 59607  79062.000000  0    3266365.175  -4383092.297  -4200631.160
10 0 59607  79182.000000  0    3402312.900  -4901501.082  -3452238.631
10 0 59607  79302.000000  0    3470665.216  -5336335.956  -2643296.767
10 0 59607  79422.000000  0    3471709.984  -5678749.332  -1787947.505
10 0 59607  79542.000000  0    3407054.423  -5921517.949   -901180.618
10 0 59607  79662.000000  0    3279573.267  -6059202.662      1432.100
10 0 59607  79782.000000  0    3093329.181  -6088273.145    904016.850
10 0 59607  79902.000000  0    2853469.469  -6007196.168   1790684.327
10 0 59607  80022.000000  0    2566100.570  -5816483.057   2645820.050
10 0 59607  80142.000000  0    2238142.315  -5518694.212   3454367.498
10 0 59607  80262.000000  0    1877167.754  -5118403.357   4202098.464
10 0 59607  80382.000000  0    1491232.315  -4622122.438   4875867.362
10 0 59607  80502.000000  0    1088697.210  -4038188.262   5463843.344
10 0 59607  80622.000000  0     678049.483  -3376613.737   5955717.809
10 0 59607  80742.000000  0     267723.542  -2648906.525   6342879.721
10 0 59607  80862.000000  0    -134070.572  -1867862.757   6618559.185
10 0 59607  80982.000000  0    -519509.437  -1047338.915   6777939.403
10 0 59607  81102.000000  0    -881307.173   -202004.512   6818236.986
10 0 59607  81222.000000  0   -1212852.131    652921.117   6738747.721
10 0 59607  81342.000000  0   -1508327.254   1501942.447   6540857.736
10 0 59607  81462.000000  0   -1762812.027   2329567.659   6228020.829
10 0 59607  81582.000000  0   -1972365.074   3120591.188   5805702.043
10 0 59607  81702.000000  0   -2134085.480   3860374.317   5281287.381
10 0 59607  81822.000000  0   -2246152.543   4535119.621   4663961.831
10 0 59607  81942.000000  0   -2307843.175   5132134.943   3964554.162
10 0 59607  82062.000000  0   -2319525.924   5640080.447   3195350.654
10 0 59607  82182.000000  0   -2282631.692   6049192.518   2369879.690
10 0 59607  82302.000000  0   -2199601.676   6351479.712   1502672.247
10 0 59607  82422.000000  0   -2073813.196   6540886.229    609001.527
10 0 59607  82542.000000  0   -1909485.410   6613418.122   -295392.705
10 0 59607  82662.000000  0   -1711567.649   6567229.346  -1194589.783
10 0 59607  82782.000000  0   -1485612.188   6402664.481  -2072779.997
10 0 59607  82902.000000  0   -1237634.474   6122252.186  -2914551.797
10 0 59607  83022.000000  0    -973966.614   5730656.292  -3705165.100
10 0 59607  83142.000000  0    -701107.506   5234587.858  -4430810.069
10 0 59607  83262.000000  0    -425573.049   4642677.806  -5078845.926
10 0 59607  83382.000000  0    -153749.464   3965315.844  -5638015.111
10 0 59607  83502.000000  0     108247.118   3214458.315  -6098631.075
10 0 59607  83622.000000  0     354701.246   2403408.976  -6452735.415
10 0 59607  83742.000000  0     580416.000   1546579.774  -6694223.230
10 0 59607  83862.000000  0     780817.355    659235.643  -6818938.639
10 0 59607  83982.000000  0     952042.660   -242774.119  -6824738.547
10 0 59607  84102.000000  0    1091012.199  -1143293.777  -6711525.021
10 0 59607  84222.000000  0    1195482.801  -2026143.082  -6481244.990
10 0 59607  84342.000000  0    1264083.502  -2875399.580  -6137860.841
10 0 59607  84462.000000  0    1296333.091  -3675680.964  -5687291.717
10 0 59607  84582.000000  0    1292637.336  -4412423.586  -5137321.372
10 0 59607  84702.000000  0    1254267.984  -5072148.475  -4497473.781
10 0 59607  84822.000000  0    1183322.787  -5642713.264  -3778860.106
10 0 59607  84942.000000  0    1082666.266  -6113545.009  -2993994.720
10 0 59607  85062.000000  0     955853.410  -6475847.051  -2156583.680
10 0 59607  85182.000000  0     807037.616  -6722776.096  -1281288.253
10 0 59607  85302.000000  0     640863.882  -6849583.466   -383466.598
10 0 59607  85422.000000  0     462350.251  -6853715.630    521100.505
10 0 59607  85542.000000  0     276760.586  -6734872.254   1416493.669
10 0 59607  85662.000000  0      89471.759  -6495019.754   2286943.936
10 0 59607  85782.000000  0     -94161.356  -6138358.359   3117120.685
10 0 59607  85902.000000  0    -268939.595  -5671241.891   3892410.153
10 0 59607  86022.000000  0    -429948.777  -5102055.690   4599176.141
10 0 59607  86142.000000  0    -572680.703  -4441057.016   5225002.090
10 0 59607  86262.000000  0    -693142.914  -3700180.342   5758908.426
10 0 59607  86382.000000  0    -787955.322  -2892811.940   6191542.988
10 0 59608    102.000000  0    -854431.280  -2033538.981   6515338.118
10 0 59608    222.000000  0    -890641.701  -1137882.267   6724635.407
10 0 59608    342.000000  0    -895461.759   -222014.227   6815780.010
10 0 59608    462.000000  0    -868599.464    697534.058   6787180.921
10 0 59608    582.000000  0    -810604.068   1604170.926   6639337.074
10 0 59608    702.000000  0    -722854.703   2481542.931   6374829.045
10 0 59608    822.000000  0    -607530.050   3313829.557   5998276.885
10 0 59608    942.000000  0    -467559.671   4086030.142   5516264.395
10 0 59608   1062.000000  0    -306557.351   4784237.548   4937229.454
10 0 59608   1182.000000  0    -128737.670   5395895.398   4271323.210
10 0 59608   1302.000000  0      61183.108   5910032.189   3530234.821
10 0 59608   1422.000000  0     258098.343   6317465.643   2726991.765
10 0 59608   1542.000000  0     456633.696   6610982.668   1875730.687
10 0 59608   1662.000000  0     651279.096   6785474.458    991441.559
10 0 59608   1782.000000  0     836524.667   6838030.771     89697.700
10 0 59608   1902.000000  0    1006998.538   6767990.940   -813626.603
10 0 59608   2022.000000  0    1157601.448   6576949.008  -1702644.303
10 0 59608   2142.000000  0    1283635.111   6268714.402  -2561742.407
10 0 59608   2262.000000  0    1380921.740   5849229.020  -3375862.303
10 0 59608   2382.000000  0    1445911.907   5326442.532  -4130767.269
10 0 59608   2502.000000  0    1475778.178   4710149.679  -4813291.490
10 0 59608   2622.000000  0    1468492.138   4011794.299  -5411565.124
10 0 59608   2742.000000  0    1422883.237   3244247.173  -5915212.721
10 0 59608   2862.000000  0    1338678.700   2421561.134  -6315523.716
10 0 59608   2982.000000  0    1216523.513   1558709.489  -6605590.768
10 0 59608   3102.000000  0    1057981.385    671314.570  -6780418.172
10 0 59608   3222.000000  0     865516.041   -224632.036  -6836999.546
10 0 59608   3342.000000  0     642453.245  -1113052.588  -6774363.186
10 0 59608   3462.000000  0     392924.149  -1978064.397  -6593585.277
10 0 59608   3582.000000  0     121791.635  -2804255.201  -6297773.859
10 0 59608   3702.000000  0    -165441.190  -3576953.498  -5892023.279
10 0 59608   3822.000000  0    -462738.077  -4282487.303  -5383334.501
10 0 59608   3942.000000  0    -763650.254  -4908427.039  -4780505.636
10 0 59608   4062.000000  0   -1061450.086  -5443810.141  -4093991.436
10 0 59608   4182.000000  0   -1349275.072  -5879341.933  -3335731.986
10 0 59608   4302.000000  0   -1620278.882  -6207567.808  -2518952.685
10 0 59608   4422.000000  0   -1867786.430  -6423013.201  -1657938.435
10 0 59608   4542.000000  0   -2085449.285  -6522287.423   -767784.205
10 0 59608   4662.000000  0   -2267397.381  -6504147.051    135873.392
10 0 59608   4782.000000  0   -2408383.412  -6369516.147   1037137.533
10 0 59608   4902.000000  0   -2503915.756  -6121462.663   1920139.310
10 0 59608   5022.000000  0   -2550376.357  -5765131.316   2769326.406
10 0 59608   5142.000000  0   -2545120.143  -5307634.452   3569745.410
10 0 59608   5262.000000  0   -2486553.437  -4757904.197   4307311.140
10 0 59608   5382.000000  0   -2374190.142  -4126510.656   4969057.596
10 0 59608   5502.000000  0   -2208685.010  -3425450.533   5543367.009
10 0 59608   5622.000000  0   -1991841.894  -2667909.783   6020171.644
99
